ONEWEB-0228             
1 48780U 21045P   23283.54256631  .00000220  00000+0  55074-3 0  9996
2 48780  87.8932  94.4309 0001762  84.6064 275.5267 13.15547575115395
